[Satellite]
VERSION=1.1
NAME=CZ-6A DEB
NICKNAME=CZ-6A DEB
TLE1=1 54634U 22151PL  22342.47638167  .00003670  00000+0  20972-2 0  9995
TLE2=2 54634  98.7897 346.8398 0046939  23.6991 336.6327 14.09629142  2453
STATUS=0
